STARLINK-1067           
1 44771U 19074BL  26153.19333739  .00080091  00000+0  55740-3 0  9990
2 44771  53.0420 148.8368 0006897   8.1657 351.9472 15.73676030361755
STARLINK-1068           
1 44772U 19074BM  26153.26403102  .00078575  00000+0  53067-3 0  9995
2 44772  53.0415 122.1667 0002354  97.1908 262.9378 15.74407783362124
JILIN-1 GAOFEN 2A       
1 44777U 19075A   26153.31176172  .00016867  00000+0  43971-3 0  9990
2 44777  97.4967 236.7589 0007581 130.8420 229.3483 15.38892721362594
NINGXIA-1 1             
1 44779U 19076A   26153.28868655 -.00000076  00000+0  34927-4 0  9991
2 44779  45.0052 246.4310 0010144  88.7120 271.4876 14.02037104335766
NINGXIA-1 2             
1 44780U 19076B   26153.27257184  .00000051  00000+0  11761-3 0  9993
2 44780  45.0088 246.8371 0005901  79.8961 280.2538 14.02055032335760
NINGXIA-1 3             
1 44781U 19076C   26153.25699350 -.00000055  00000+0  48460-4 0  9999
2 44781  44.9992 245.1154 0009008  76.7471 283.4368 14.02050005335769
NINGXIA-1 4             
1 44782U 19076D   26153.31521400  .00000012  00000+0  92597-4 0  9999
2 44782  45.0084 246.2877 0011858  52.7304 307.4610 14.02068181335731
NINGXIA-1 5             
1 44783U 19076E   26153.30248709 -.00000135  00000+0 -32342-5 0  9998
2 44783  45.0057 245.7167 0009894  77.6341 282.5600 14.02084633335688
KL-ALPHA A              
1 44785U 19077A   26153.28881219  .00000054  00000+0  59278-4 0  9991
2 44785  88.9264 224.1927 0012349 143.5507 216.6490 13.56041625323715
KL-ALPHA B              
1 44786U 19077B   26153.29626451  .00000066  00000+0  76680-4 0  9997
2 44786  88.9127 221.8022 0026051 188.7500 171.3204 13.56000682323160
BEIDOU-3 M22            
1 44793U 19078A   26151.97339797 -.00000079  00000+0  00000+0 0  9996
2 44793  53.9515 300.3973 0006799  49.8773 310.1558  1.86227466 44341
BEIDOU-3 M21            
1 44794U 19078B   26152.11336162 -.00000078  00000+0  00000+0 0  9996
2 44794  53.9245 300.3540 0004659  48.1106 311.9031  1.86227902 44358
TIBA-1                  
1 44800U 19080A   26153.29068718  .00000168  00000+0  00000+0 0  9995
2 44800   0.0542   8.0207 0002276  73.8461 309.0293  1.00272058 23907
INMARSAT GX5            
1 44801U 19080B   26151.57471343  .00000088  00000+0  00000+0 0  9998
2 44801   0.0494  30.1743 0002284  51.2792  25.5434  1.00272660  6627
CARTOSAT-3              
1 44804U 19081A   26153.33797056  .00004118  00000+0  19776-3 0  9992
2 44804  97.4307 215.4426 0012224 195.9162 164.1690 15.19337638361216
GAOFEN-12 01            
1 44819U 19082A   26153.27790420  .00000445  00000+0  64806-4 0  9994
2 44819  97.8100 160.0511 0002527  88.6154 271.5348 14.80445121351880
JILIN-1 GAOFEN 2B       
1 44836U 19086A   26153.27546286  .00007168  00000+0  32995-3 0  9998
2 44836  97.4884 225.3612 0014219  18.5042 341.6707 15.20534148358226
COSMOS 2544 [GLONASS-M] 
1 44850U 19088A   26152.07446355 -.00000034  00000+0  00000+0 0  9993
2 44850  65.5577  74.2677 0013729 260.3922  99.4546  2.13102032 50373
RISAT-2BR1              
1 44857U 19089F   26153.25903558  .00003127  00000+0  24245-3 0  9991
2 44857  36.9586 200.1993 0010974  47.7177 312.4494 15.01587091354955
IHOPSAT-TD              
1 44859U 19089H   26152.23205628  .00003120  00000+0  18438-3 0  9993
2 44859  36.9657 134.5843 0003729 117.9159 242.1965 15.11724205355572
BEIDOU-3 M19            
1 44864U 19090A   26153.17924106 -.00000055  00000+0  00000+0 0  9991
2 44864  56.5465  63.2864 0018532 297.1964 254.6393  1.86231904 43952
BEIDOU-3 M20            
1 44865U 19090B   26152.40309426 -.00000062  00000+0  00000+0 0  9997
2 44865  56.5472  63.3464 0016275 310.6292 170.4314  1.86231789 43921
JCSAT-18 (KACIFIC 1)    
1 44868U 19091A   26153.17079199  .00000000  00000+0  00000+0 0  9998
2 44868   0.0108 333.4671 0000380 148.2925 340.3763  1.00270748 23864
CSG-1                   
1 44873U 19092A   26153.33404287  .00000457  00000+0  64025-4 0  9991
2 44873  97.8886 337.1518 0001447  90.3283 269.8096 14.82150867349270
CHEOPS                  
1 44874U 19092B   26153.09588007  .00000394  00000+0  87935-4 0  9993
2 44874  98.1505 341.5754 0011375 141.6029 218.5984 14.61953767343697
TIANQIN 1 (CAS-6)       
1 44879U 19093A   26153.30144030  .00004022  00000+0  36923-3 0  9999
2 44879  97.7802 237.2496 0012521 103.0902 257.1717 14.95357415349826
ETRSS-1                 
1 44880U 19093B   26153.31250301  .00004876  00000+0  44168-3 0  9998
2 44880  97.7821 237.7063 0012925 103.0578 257.2087 14.95777756349837
TIANYAN 01              
1 44881U 19093C   26153.30315828  .00001717  00000+0  19976-3 0  9994
2 44881  97.7536 225.8979 0014656 131.5507 228.6969 14.86496249349203
TIANYAN 02              
1 44882U 19093D   26153.29430333  .00007189  00000+0  50943-3 0  9990
2 44882  97.7920 247.9443 0014832  76.4491 283.8386 15.05022999350372
CBERS 4A                
1 44883U 19093E   26153.29935700  .00001630  00000+0  21386-3 0  9993
2 44883  97.7502 221.0126 0000994 165.3907 194.7335 14.81613023348877
