OBJECT_NAME,OBJECT_ID,EPOCH,MEAN_MOTION,ECCENTRICITY,INCLINATION,RA_OF_ASC_NODE,ARG_OF_PERICENTER,MEAN_ANOMALY,EPHEMERIS_TYPE,CLASSIFICATION_TYPE,NORAD_CAT_ID,ELEMENT_SET_NO,REV_AT_EPOCH,BSTAR,MEAN_MOTION_DOT,MEAN_MOTION_DDOT
STARLINK-1067,2019-074BL,2026-06-02T04:38:24.350496,15.73676030,.00068974,53.0420,148.8368,8.1657,351.9472,0,U,44771,999,36175,.55739687E-3,.80091E-3,0
STARLINK-1068,2019-074BM,2026-06-02T06:20:12.280128,15.74407783,.00023547,53.0415,122.1667,97.1908,262.9378,0,U,44772,999,36212,.53067061E-3,.78575E-3,0
JILIN-1 GAOFEN 2A,2019-075A,2026-06-02T07:28:56.212608,15.38892721,.00075817,97.4967,236.7589,130.8420,229.3483,0,U,44777,999,36259,.43970582E-3,.16867E-3,0
NINGXIA-1 1,2019-076A,2026-06-02T06:55:42.517920,14.02037104,.00101447,45.0052,246.4310,88.7120,271.4876,0,U,44779,999,33576,.34926558E-4,-.76E-6,0
NINGXIA-1 2,2019-076B,2026-06-02T06:32:30.206976,14.02055032,.00059019,45.0088,246.8371,79.8961,280.2538,0,U,44780,999,33576,.11761071E-3,.51E-6,0
NINGXIA-1 3,2019-076C,2026-06-02T06:10:04.238400,14.02050005,.00090089,44.9992,245.1154,76.7471,283.4368,0,U,44781,999,33576,.48459739E-4,-.55E-6,0
NINGXIA-1 4,2019-076D,2026-06-02T07:33:54.489600,14.02068181,.00118582,45.0084,246.2877,52.7304,307.4610,0,U,44782,999,33573,.92596725E-4,.12E-6,0
NINGXIA-1 5,2019-076E,2026-06-02T07:15:34.884576,14.02084633,.00098948,45.0057,245.7167,77.6341,282.5600,0,U,44783,999,33568,-.3234225E-5,-.135E-5,0
KL-ALPHA A,2019-077A,2026-06-02T06:55:53.373216,13.56041625,.00123496,88.9264,224.1927,143.5507,216.6490,0,U,44785,999,32371,.59278053E-4,.54E-6,0
KL-ALPHA B,2019-077B,2026-06-02T07:06:37.253664,13.56000682,.00260516,88.9127,221.8022,188.7500,171.3204,0,U,44786,999,32316,.76680354E-4,.66E-6,0
BEIDOU-3 M22,2019-078A,2026-05-31T23:21:41.584608,1.86227466,.00067997,53.9515,300.3973,49.8773,310.1558,0,U,44793,999,4434,0,-.79E-6,0
BEIDOU-3 M21,2019-078B,2026-06-01T02:43:14.443968,1.86227902,.00046594,53.9245,300.3540,48.1106,311.9031,0,U,44794,999,4435,0,-.78E-6,0
TIBA-1,2019-080A,2026-06-02T06:58:35.372352,1.00272058,.00022765,0.0542,8.0207,73.8461,309.0293,0,U,44800,999,2390,0,.168E-5,0
INMARSAT GX5,2019-080B,2026-05-31T13:47:35.240352,1.00272660,.00022844,0.0494,30.1743,51.2792,25.5434,0,U,44801,999,662,0,.88E-6,0
CARTOSAT-3,2019-081A,2026-06-02T08:06:40.656384,15.19337638,.00122248,97.4307,215.4426,195.9162,164.1690,0,U,44804,999,36121,.19776248E-3,.4118E-4,0
GAOFEN-12 01,2019-082A,2026-06-02T06:40:10.922880,14.80445121,.00025276,97.8100,160.0511,88.6154,271.5348,0,U,44819,999,35188,.6480615E-4,.445E-5,0
JILIN-1 GAOFEN 2B,2019-086A,2026-06-02T06:36:39.991104,15.20534148,.00142194,97.4884,225.3612,18.5042,341.6707,0,U,44836,999,35822,.32995397E-3,.7168E-4,0
COSMOS 2544 [GLONASS-M],2019-088A,2026-06-01T01:47:13.650720,2.13102032,.00137299,65.5577,74.2677,260.3922,99.4546,0,U,44850,999,5037,0,-.34E-6,0
RISAT-2BR1,2019-089F,2026-06-02T06:13:00.674112,15.01587091,.00109746,36.9586,200.1993,47.7177,312.4494,0,U,44857,999,35495,.24245156E-3,.3127E-4,0
IHOPSAT-TD,2019-089H,2026-06-01T05:34:09.662592,15.11724205,.00037299,36.9657,134.5843,117.9159,242.1965,0,U,44859,999,35557,.18438051E-3,.312E-4,0
BEIDOU-3 M19,2019-090A,2026-06-02T04:18:06.427584,1.86231904,.00185323,56.5465,63.2864,297.1964,254.6393,0,U,44864,999,4395,0,-.55E-6,0
BEIDOU-3 M20,2019-090B,2026-06-01T09:40:27.344064,1.86231789,.00162753,56.5472,63.3464,310.6292,170.4314,0,U,44865,999,4392,0,-.62E-6,0
JCSAT-18 (KACIFIC 1),2019-091A,2026-06-02T04:05:56.427936,1.00270748,.00003802,0.0108,333.4671,148.2925,340.3763,0,U,44868,999,2386,0,0,0
CSG-1,2019-092A,2026-06-02T08:01:01.303968,14.82150867,.00014475,97.8886,337.1518,90.3283,269.8096,0,U,44873,999,34927,.64025163E-4,.457E-5,0
CHEOPS,2019-092B,2026-06-02T02:18:04.038048,14.61953767,.0011375,98.1505,341.5754,141.6029,218.5984,0,U,44874,999,34369,.87935136E-4,.394E-5,0
TIANQIN 1 (CAS-6),2019-093A,2026-06-02T07:14:04.441920,14.95357415,.0012521,97.7802,237.2496,103.0902,257.1717,0,U,44879,999,34982,.36922741E-3,.4022E-4,0
ETRSS-1,2019-093B,2026-06-02T07:30:00.260064,14.95777756,.00129252,97.7821,237.7063,103.0578,257.2087,0,U,44880,999,34983,.44167747E-3,.4876E-4,0
TIANYAN 01,2019-093C,2026-06-02T07:16:32.875392,14.86496249,.00146569,97.7536,225.8979,131.5507,228.6969,0,U,44881,999,34920,.19975503E-3,.1717E-4,0
TIANYAN 02,2019-093D,2026-06-02T07:03:47.807712,15.05022999,.00148324,97.7920,247.9443,76.4491,283.8386,0,U,44882,999,35037,.50943462E-3,.7189E-4,0
CBERS 4A,2019-093E,2026-06-02T07:11:04.444800,14.81613023,.00009943,97.7502,221.0126,165.3907,194.7335,0,U,44883,999,34887,.21385692E-3,.163E-4,0
